{
    "links": {
        "self": "http://www.neowsapp.com/rest/v1/neo/3795085?api_key=iIulBulltgU6a56xZRHN4H3l9WmuAYTsLGpBGhQ2"
    },
    "id": "3795085",
    "neo_reference_id": "3795085",
    "name": "(2017 YN5)",
    "designation": "2017 YN5",
    "nasa_jpl_url": "http://ssd.jpl.nasa.gov/sbdb.cgi?sstr=3795085",
    "absolute_magnitude_h": 23.6,
    "estimated_diameter": {
        "kilometers": {
            "estimated_diameter_min": 0.0506471459,
            "estimated_diameter_max": 0.1132504611
        },
        "meters": {
            "estimated_diameter_min": 50.6471458835,
            "estimated_diameter_max": 113.2504610618
        },
        "miles": {
            "estimated_diameter_min": 0.0314706677,
            "estimated_diameter_max": 0.0703705522
        },
        "feet": {
            "estimated_diameter_min": 166.1651821003,
            "estimated_diameter_max": 371.5566426699
        }
    },
    "is_potentially_hazardous_asteroid": false,
    "close_approach_data": [
        {
            "close_approach_date": "2018-01-03",
            "close_approach_date_full": "2018-Jan-03 03:25",
            "epoch_date_close_approach": 1514949900000,
            "relative_velocity": {
                "kilometers_per_second": "13.9779098291",
                "kilometers_per_hour": "50320.4753846552",
                "miles_per_hour": "31267.1864966487"
            },
            "miss_distance": {
                "astronomical": "0.1919656346",
                "lunar": "74.6746318594",
                "kilometers": "28717650.049358302",
                "miles": "17844320.2885444876"
            },
            "orbiting_body": "Earth"
        }
    ],
    "orbital_data": {
        "orbit_id": "2",
        "orbit_determination_date": "2019-07-19 05:26:32",
        "first_observation_date": "2017-12-24",
        "last_observation_date": "2017-12-27",
        "data_arc_in_days": 3,
        "observations_used": 22,
        "orbit_uncertainty": "9",
        "minimum_orbit_intersection": ".159006",
        "jupiter_tisserand_invariant": "4.795",
        "epoch_osculation": "2458113.5",
        "eccentricity": ".1467061290923959",
        "semi_major_axis": "1.335730471755988",
        "inclination": "26.24291079856814",
        "ascending_node_longitude": "100.7053011105924",
        "orbital_period": "563.8669983367859",
        "perihelion_distance": "1.139770624733907",
        "perihelion_argument": "11.16784291634069",
        "aphelion_distance": "1.531690318778069",
        "perihelion_time": "2458125.861628468873",
        "mean_anomaly": "352.1077377077914",
        "mean_motion": ".6384484303246625",
        "equinox": "J2000",
        "orbit_class": {
            "orbit_class_type": "AMO",
            "orbit_class_description": "Near-Earth asteroid orbits similar to that of 1221 Amor",
            "orbit_class_range": "1.017 AU < q (perihelion) < 1.3 AU"
        }
    },
    "is_sentry_object": false
}